{"type":"FeatureCollection","features":[{"type":"Feature","geometry":{"type":"MultiPolygon","coordinates":[[[[9.223522261000028,54.851270001000046],[9.271779309000067,54.80999290600005],[9.36776476700004,54.82420167100008],[9.420151500000031,54.83195649900006],[9.422934,54.82322299900005],[9.442647067000053,54.804698408000036],[9.491949500000032,54.82263549900006],[9.583140635000063,54.85427098700006],[9.862595937000037,54.75357958600006],[9.91535228500004,54.78915052500008],[9.949501369000075,54.77874454500005],[10.03117,54.63657499900006],[9.937827262000042,54.48086823700004],[10.099372264000067,54.47047997800007],[10.168517,54.432844999000054],[10.174162,54.34574549900003],[10.233329678000075,54.41007350900003],[10.347365731000025,54.43177431100003],[10.71375050000006,54.30507249900006],[10.925059383000075,54.37749124000004],[11.082829097000058,54.38556442600003],[11.084952721000036,54.431531792000044],[11.01368086900004,54.45815187000005],[11.025310758000046,54.474473068000066],[11.062777402000052,54.52705314600007],[11.223542438000038,54.500458053000045],[11.246023098000023,54.474473068000066],[11.300743767000029,54.41122244400003],[11.157152821000068,54.40373073300003],[11.08898683600006,54.35348305900004],[11.086116340000046,54.205564723000066],[11.04188427300005,54.17475164900003],[10.779946059000054,54.07669791100005],[10.764892511000028,54.027697931000034],[10.840886,53.99189399900007],[10.903661500000055,53.956821999000056],[10.763055535000035,53.86200047400007],[10.762964500000066,53.81115299900006],[10.770233731000076,53.74937289500008],[10.925461218000066,53.68873263000006],[10.951918500000033,53.64762249900008],[10.901002290000065,53.57472934300006],[10.834767036000073,53.56714062000003],[10.786233980000077,53.50212729500004],[10.639283929000044,53.44816823900004],[10.595047,53.363927499000056],[10.469184,53.38584399900003],[10.307954,53.433200999000064],[10.236678500000039,53.49635449900006],[10.166027469000028,53.55111127100008],[10.189639014000022,53.61027118000004],[10.152262387000064,53.71179875200005],[10.07143,53.69702349900007],[9.945376,53.65292799900004],[9.862595937000037,53.60745666000008],[9.76283021200004,53.60761317300006],[9.730104,53.55758099900004],[9.562763163000056,53.61285701000003],[9.48589,53.70766449900003],[9.272733,53.86766249900006],[9.199751,53.880104499000026],[8.963501947000054,53.89917316300006],[8.832592,54.023929499000076],[8.967901469000026,54.05240663600006],[8.92908445200004,54.119737617000055],[8.850336107000032,54.13200485700003],[8.809449147000066,54.18576498400006],[8.844804500000066,54.26632849900005],[8.691590763000022,54.28927368600006],[8.64294665400007,54.32135952200008],[8.697060575000023,54.38457352900008],[8.872096503000023,54.416724970000075],[8.931343751000043,54.46325656600004],[8.845478145000072,54.49242852100008],[8.851506651000022,54.61054855300006],[8.654623358000038,54.80853472300004],[8.635926,54.91168299900005],[9.113097,54.873601499000074],[9.223522261000028,54.851270001000046]]],[[[8.567491292000057,54.68062247800003],[8.486125909000066,54.68021033800005],[8.40229897200004,54.70037812400005],[8.395005054000023,54.71507019100005],[8.436686320000035,54.74834444000004],[8.534926059000043,54.75574439600007],[8.588271190000057,54.74119712100003],[8.596641501000022,54.718740222000065],[8.567491292000057,54.68062247800003]]],[[[8.380844381000031,54.89223120300005],[8.455924612000047,54.87685316800008],[8.464249763000055,54.863266192000026],[8.416371135000077,54.84689268400007],[8.33953410600003,54.878846804000034],[8.297410458000058,54.850074868000036],[8.286466379000046,54.85985114400006],[8.296774869000046,54.91121100400005],[8.337092900000073,54.973050701000034],[8.36076053000005,54.95881836800004],[8.362965565000025,54.90905704800008],[8.380844381000031,54.89223120300005]]],[[[8.671212698000033,54.494838025000035],[8.623974332000046,54.48897348700007],[8.586713872000075,54.52296641200007],[8.598289825000052,54.53432133800004],[8.687796928000068,54.55712979900005],[8.710906157000068,54.553481383000076],[8.696832890000053,54.51601381100005],[8.671212698000033,54.494838025000035]]],[[[8.404368285000032,54.614660686000036],[8.366856170000062,54.606070885000065],[8.289374567000038,54.66731681300007],[8.33975308600003,54.696209675000034],[8.363153210000064,54.650605846000076],[8.404368285000032,54.614660686000036]]],[[[8.441248592000022,55.017099597000026],[8.36656061900004,54.98780262900004],[8.356786253000053,54.996667536000075],[8.398048608000067,55.05427717900005],[8.438605401000075,55.045925529000044],[8.441248592000022,55.017099597000026]]],[[[10.953590987000041,53.89843018900007],[10.896709282000074,53.888011007000046],[10.883664045000046,53.900027152000064],[10.905229299000041,53.92877436200007],[10.951397450000059,53.92401552300004],[10.953590987000041,53.89843018900007]]],[[[8.32025559400006,54.785596217000034],[8.292345405000049,54.735339761000034],[8.26264875000004,54.76115575000006],[8.274902230000066,54.79798045000007],[8.32025559400006,54.785596217000034]]],[[[8.57711684900005,54.54494582500007],[8.542542163000064,54.540416546000074],[8.516447215000028,54.571873907000054],[8.56658475100005,54.59625058900008],[8.57711684900005,54.54494582500007]]]]},"properties":{"NUTS_ID":"DEF","NUTS_NAME":"Schleswig-Holstein"}},{"type":"Feature","geometry":{"type":"MultiPolygon","coordinates":[[[[10.896128572000066,51.57086647400007],[10.978113,51.42688499900004],[11.313299355000026,51.40464067800008],[11.383534286000042,51.38042535400007],[11.405773,51.34220399900005],[11.473968,51.29505849900005],[11.385374500000069,51.24588699900005],[11.381773815000031,51.215054775000056],[11.46564972300007,51.186265105000075],[11.484608500000036,51.10543749900006],[11.696938500000044,51.08749099900007],[11.775483730000076,51.048786825000036],[11.88621943000004,51.04995980900003],[12.021018500000025,50.969122499000036],[12.163529500000038,50.95859999900006],[12.224169,50.942934999000045],[12.28207476700004,51.01876714300005],[12.283547,51.09192399900007],[12.470887075000064,51.07719535700005],[12.551975231000029,51.00085434600004],[12.617355,50.98079299900007],[12.652865500000075,50.92367799900006],[12.250825500000076,50.81831849900004],[12.275198974000034,50.77964144800006],[12.238491943000042,50.74289009800003],[12.318916500000057,50.676532499000075],[12.055807920000063,50.55576404300007],[12.010456164000061,50.60491812200007],[11.944137500000068,50.59127549900006],[11.883192592000057,50.53682507500008],[11.946247493000044,50.49647244600004],[11.906935514000054,50.44741630400006],[11.919323,50.42472799900003],[11.837007242000027,50.39739530000003],[11.603290500000071,50.398765999000034],[11.525337742000033,50.383952985000064],[11.481568,50.43162149900007],[11.43090539700006,50.44100975300006],[11.401218568000047,50.51757775100003],[11.265938,50.47942099900007],[11.276817694000044,50.371244181000066],[11.250487706000058,50.29010942800005],[11.189943,50.27118549900007],[11.12070022000006,50.35825632900003],[11.03728886600004,50.35151625100008],[10.945718500000055,50.38646649900005],[10.740279226000041,50.35929160400008],[10.736480286000074,50.32020255200007],[10.81267372000002,50.26465817400003],[10.729202,50.23000549900007],[10.610115,50.22799499900003],[10.590759513000023,50.32912350400005],[10.450532,50.40185949900007],[10.399765213000023,50.40381535700004],[10.328591071000062,50.488586972000064],[10.203337041000054,50.548085842000035],[10.10472657300005,50.55549164700005],[10.041338500000052,50.51646949900004],[10.046112779000055,50.608971747000055],[10.077555500000074,50.63762399900003],[10.016909672000054,50.66832490000007],[9.943680357000062,50.63634305000005],[9.899958616000049,50.64992062400006],[9.926176500000054,50.767389999000045],[10.017097257000046,50.876031675000036],[9.989913940000065,50.923295805000066],[10.021558500000026,50.992949499000076],[10.182348500000046,50.99848749900008],[10.202181,51.012008999000045],[10.155821761000027,51.05962602800008],[10.14655569200005,51.136195271000076],[10.210013,51.144082999000034],[10.206942,51.190648999000075],[9.954927030000022,51.30431559800007],[9.928339,51.37529899900005],[10.285846161000052,51.49328178900004],[10.388155871000038,51.57968398600008],[10.488551,51.57477849900005],[10.642706131000068,51.56706532100003],[10.677283,51.63837599900006],[10.701372,51.642187499000045],[10.916059,51.616373999000075],[10.896128572000066,51.57086647400007]]]]},"properties":{"NUTS_ID":"DEG","NUTS_NAME":"Th\u00fcringen"}},{"type":"Feature","geometry":{"type":"MultiPolygon","coordinates":[[[[12.556752807000066,54.45430793700007],[12.796997159000057,54.37293062500004],[12.868372074000035,54.42454041600007],[12.984895614000038,54.42038920300007],[13.133108865000054,54.307875429000035],[13.099558649000073,54.29439894300003],[13.115738983000028,54.27345968700007],[13.155713928000068,54.26299005800007],[13.215676346000066,54.245857939000075],[13.284204823000039,54.23634009500006],[13.307999433000077,54.20207585600008],[13.319396,54.19350599900008],[13.472157536000054,54.10466990900005],[13.813746804000061,54.16659620400003],[13.911037229000044,54.06779721300006],[13.895676723000065,54.02943896000005],[13.805437901000062,54.009438671000055],[13.896921877000068,53.89773561100003],[13.920906437000042,53.91100288200005],[13.923123790000034,53.97653815600006],[14.022350834000065,53.97462006400008],[14.033560395000052,54.02841302600007],[14.226302,53.928652999000064],[14.213077500000054,53.866479499000036],[14.045766478000075,53.86649188400003],[13.938838195000073,53.82046750600006],[14.057760883000071,53.75698765700008],[14.22265701200007,53.74409580400004],[14.267542,53.69780649900008],[14.412157,53.32963599900006],[14.37163699100006,53.312396300000046],[14.223499658000037,53.26102642200004],[14.14539178800004,53.26946256800005],[14.166649919000065,53.312396300000046],[14.22238223200003,53.365150312000026],[14.233521804000077,53.416560779000065],[13.930814061000035,53.42751324400007],[13.799323980000054,53.53973552900004],[13.795141793000028,53.48336029700005],[13.710065500000042,53.479062499000065],[13.561386662000075,53.395898817000045],[13.500176660000022,53.312396300000046],[13.401030401000071,53.26031878600003],[13.292525225000077,53.269378621000044],[13.241403500000047,53.23240099900005],[13.138951122000037,53.24522379700005],[12.984683,53.16498549900007],[12.654484954000054,53.24305919400007],[12.457871124000064,53.256804344000045],[12.331751500000053,53.31801099900008],[12.325101500000073,53.32130149900007],[12.05912810600006,53.35494817600005],[12.015128511000057,53.312396300000046],[11.822202118000064,53.23346600100007],[11.608997504000058,53.22751669000007],[11.51056317800004,53.13092007500006],[11.265732,53.12197799900008],[11.171861500000034,53.15664399900004],[10.965786182000045,53.33036222700008],[10.826224633000038,53.31593122400005],[10.699007549000044,53.36276917600003],[10.595047,53.363927499000056],[10.639283929000044,53.44816823900004],[10.786233980000077,53.50212729500004],[10.834767036000073,53.56714062000003],[10.901002290000065,53.57472934300006],[10.951918500000033,53.64762249900008],[10.925461218000066,53.68873263000006],[10.770233731000076,53.74937289500008],[10.762964500000066,53.81115299900006],[10.763055535000035,53.86200047400007],[10.903661500000055,53.956821999000056],[11.157703687000037,54.01380497700006],[11.267482678000022,53.938250079000056],[11.337002251000058,53.94967305400007],[11.444554916000072,53.914288971000076],[11.476173675000041,53.95732663200005],[11.398917649000055,53.97092623800006],[11.38818726200003,53.99561850400005],[11.56177850000006,54.028088499000035],[11.686569398000074,54.14520648700005],[11.999088112000038,54.17475164900003],[12.129121406000024,54.18568737600003],[12.201068,54.244695499000045],[12.28553050000005,54.27495199900005],[12.356997131000071,54.317795283000066],[12.416876565000052,54.294745532000036],[12.469266097000059,54.31674614100007],[12.503476809000063,54.36004974000008],[12.495643895000057,54.41702401800006],[12.556752807000066,54.45430793700007]],[[10.951397450000059,53.92401552300004],[10.905229299000041,53.92877436200007],[10.883664045000046,53.900027152000064],[10.896709282000074,53.888011007000046],[10.953590987000041,53.89843018900007],[10.951397450000059,53.92401552300004]]],[[[13.370584582000049,54.55525209000007],[13.492499787000042,54.45598986300007],[13.521839460000024,54.47581642700004],[13.501318365000031,54.55308086900004],[13.636724237000067,54.55012751500004],[13.607661475000043,54.44731946300004],[13.700645356000052,54.33411516400008],[13.490590516000054,54.32355847600007],[13.341674276000049,54.24024899500006],[13.313710139000023,54.24014723200003],[13.267072703000053,54.25442399900004],[13.20806207000004,54.27060433300005],[13.186171029000036,54.30391678700005],[13.139580286000069,54.318566271000066],[13.185420020000038,54.39429390300006],[13.167189793000034,54.50195351000008],[13.29499433500007,54.65181458200004],[13.382208694000042,54.64687295200008],[13.400599012000043,54.59162128200006],[13.370584582000049,54.55525209000007]]],[[[13.118280353000046,54.582149525000034],[13.129569269000058,54.528940299000055],[13.07274392200003,54.52940591000004],[13.091675467000073,54.57365604900008],[13.118280353000046,54.582149525000034]]],[[[11.589581960000032,54.08054516200008],[11.539519073000065,54.05075415700003],[11.517318381000052,54.074849011000026],[11.56783241900007,54.10882115100003],[11.589581960000032,54.08054516200008]]]]},"properties":{"NUTS_ID":"DE8","NUTS_NAME":"Mecklenburg-Vorpommern"}},{"type":"Feature","geometry":{"type":"MultiPolygon","coordinates":[[[[8.606721056000026,53.87393925600003],[8.687172500000031,53.89190799900007],[8.79257648500004,53.83597366500004],[9.018512500000043,53.83484099900005],[9.272733,53.86766249900006],[9.48589,53.70766449900003],[9.562763163000056,53.61285701000003],[9.730104,53.55758099900004],[9.766256584000075,53.54681530400006],[9.768861,53.50527899900004],[9.862595937000037,53.43964498200006],[9.984188030000041,53.42269248800005],[10.05909336700006,53.45534484900003],[10.204495592000058,53.39674753700007],[10.307954,53.433200999000064],[10.469184,53.38584399900003],[10.595047,53.363927499000056],[10.699007549000044,53.36276917600003],[10.826224633000038,53.31593122400005],[10.965786182000045,53.33036222700008],[11.171861500000034,53.15664399900004],[11.265732,53.12197799900008],[11.336179549000065,53.06188851300004],[11.451633637000043,53.07273081000005],[11.597784500000046,53.03592649900003],[11.509808960000043,52.99303153400007],[11.505027,52.94103249900007],[11.29941267700002,52.87819577100004],[11.042801440000062,52.909174902000075],[10.93636052100004,52.85729091500008],[10.841556,52.85220499900004],[10.759314500000073,52.79583049900003],[10.910842958000046,52.62672250900005],[10.964225703000068,52.61781959800004],[10.952672217000043,52.55533309300006],[11.008781500000055,52.49674749900004],[10.934542500000077,52.47179499900005],[11.063589851000074,52.36830686400003],[11.012037131000056,52.33457203800003],[11.06720077500006,52.23402853700003],[11.02377238400004,52.19556722100003],[11.051072500000032,52.15579201400004],[10.964556193000021,52.101233087000026],[10.964414500000032,52.056642999000076],[10.801489,52.04799699900008],[10.674277239000048,52.04506141500008],[10.561227,52.004065999000034],[10.639105549000021,51.90067793600008],[10.584553737000022,51.83917189700003],[10.590321599000049,51.78535580800008],[10.701372,51.642187499000045],[10.677283,51.63837599900006],[10.642706131000068,51.56706532100003],[10.488551,51.57477849900005],[10.388155871000038,51.57968398600008],[10.285846161000052,51.49328178900004],[9.928339,51.37529899900005],[9.898159615000054,51.41320318100003],[9.799747439000043,51.40065621900004],[9.724384319000023,51.36169095100007],[9.765356589000021,51.32096162300007],[9.732304500000055,51.295231999000066],[9.568025,51.34000149900004],[9.557291,51.35137849900008],[9.63243152800004,51.42096990700003],[9.60735736600003,51.51295036300007],[9.647755500000073,51.55251099900005],[9.628560382000046,51.56819739000008],[9.62971903600004,51.58213236300003],[9.643031317000066,51.58189079700003],[9.672377500000039,51.568403999000054],[9.685331,51.582016499000076],[9.61493024500004,51.63074579800008],[9.440457,51.65039399900007],[9.417317500000024,51.64726949900006],[9.38417035200007,51.66342173600003],[9.433053933000053,51.837272737000035],[9.323343500000021,51.855060999000045],[9.335885198000028,51.88915423800006],[9.308893,51.92271949900004],[9.253759873000035,51.96963654800004],[9.196278736000068,51.97328562800004],[9.155604500000038,52.097829999000055],[9.128248452000037,52.13211275500004],[9.021180665000031,52.14388910000008],[8.993626246000076,52.190178840000044],[9.036766974000045,52.190880320000076],[9.050825734000057,52.22105591400003],[8.983410135000042,52.26816109300006],[8.993605554000055,52.31156697600005],[9.125252500000045,52.41199349900006],[9.111278681000044,52.477952756000036],[9.06959160100007,52.49729642300008],[8.941333815000064,52.40807601500006],[8.74489552600005,52.39407055600003],[8.70828093800003,52.42347778100003],[8.703009,52.50043799900004],[8.639945700000055,52.52496197800008],[8.49193370300003,52.505205551000074],[8.414692890000026,52.44738631000007],[8.297213500000055,52.45649799900008],[8.330635679000068,52.403230491000045],[8.437124178000033,52.358259634000035],[8.466186500000049,52.26761399900005],[8.451436125000043,52.22068260400005],[8.488547969000024,52.17629360600006],[8.410586500000022,52.11511499900007],[8.26541904800007,52.126670140000044],[8.096448,52.05714499900006],[7.96335963100006,52.04106353100008],[7.885159,52.08330249900007],[8.001942806000045,52.123956676000034],[7.995083701000055,52.167125912000074],[7.912068777000059,52.20440303100003],[7.956465,52.27249049900007],[7.964625500000068,52.32485849900007],[7.919990900000073,52.36957754000008],[7.745993802000044,52.39097806500007],[7.676563389000023,52.454330051000056],[7.608038500000021,52.47401599900007],[7.564925402000028,52.37971225600006],[7.317481,52.280271999000036],[7.099149,52.24305849900003],[7.065685,52.24137299900008],[7.034425620000036,52.29148702600003],[7.063051747000031,52.373042514000076],[6.995875519000037,52.45440956900006],[6.924121396000032,52.44162603900003],[6.697865500000034,52.486285999000074],[6.729771095000046,52.574150486000065],[6.70973250000003,52.627823499000044],[7.006229500000074,52.63876299900005],[7.053421775000061,52.65717161500004],[7.072659804000068,52.81168819800007],[7.092692,52.83820099900004],[7.201083249000021,52.98550213900006],[7.202794500000039,53.11328149900004],[7.208935,53.24306449900007],[7.2643,53.325526499000034],[6.999446500000033,53.35988749900008],[7.042986201000076,53.524131993000026],[7.122710390000066,53.53362050100003],[7.10060213600002,53.575716568000075],[7.16503491800006,53.63026530800005],[7.292880556000057,53.67823392300005],[7.550173,53.67503749900004],[7.809895500000039,53.70766199900004],[8.00554285100003,53.70844643200007],[8.048686633000045,53.647745556000075],[8.091291,53.63810899900005],[8.142576038000072,53.594792804000065],[8.162105998000072,53.53377434500004],[8.061327,53.505956999000034],[8.088386481000043,53.456673683000076],[8.195555,53.40917149900008],[8.25838413100007,53.405545354000026],[8.306139834000021,53.45379168900007],[8.299474818000022,53.51603410300004],[8.236775416000057,53.53773935500004],[8.29671509000002,53.60845703400008],[8.554898,53.525130999000055],[8.492652,53.47241999900007],[8.609332478000056,53.490187167000045],[8.645464894000042,53.52133135200006],[8.636657340000056,53.598122241000056],[8.520410500000025,53.606204999000056],[8.48610327700004,53.688270052000064],[8.553132632000029,53.82058679200003],[8.606721056000026,53.87393925600003]],[[8.61555829100007,53.16320990400004],[8.654898500000058,53.10886449900005],[8.711424,53.04462999900005],[8.915827,53.01102149900004],[8.968682525000077,53.04485062200007],[8.959601614000064,53.11169854500008],[8.984185500000024,53.126070999000035],[8.485330500000032,53.22711999900008],[8.61555829100007,53.16320990400004]]],[[[6.654950332000055,53.59594576200004],[6.758641373000046,53.61763560400004],[6.783643862000076,53.608639244000074],[6.71482691500006,53.55975548500004],[6.66516137800005,53.578092421000065],[6.654950332000055,53.59594576200004]]],[[[7.289807919000054,53.70633473000004],[7.175706888000036,53.70086606600006],[7.16999568600005,53.71300027800004],[7.18881028800007,53.723422938000056],[7.291694500000062,53.72461515700007],[7.289807919000054,53.70633473000004]]],[[[6.86558539400005,53.664824517000056],[6.866655205000029,53.671068268000056],[6.99885363900006,53.68286262600003],[7.101493790000063,53.68662944600004],[7.098519464000049,53.678301332000046],[6.86558539400005,53.664824517000056]]],[[[7.696779823000043,53.773220183000035],[7.708360531000039,53.788595402000055],[7.782994995000024,53.78692180300004],[7.77025492000007,53.751632089000054],[7.696779823000043,53.773220183000035]]],[[[7.498602333000065,53.71950423700008],[7.447538520000023,53.71785967100004],[7.476696394000044,53.76208612200003],[7.518752702000029,53.763619755000036],[7.498602333000065,53.71950423700008]]],[[[7.650748050000061,53.75934891600008],[7.676852926000038,53.784825831000035],[7.708442923000064,53.765356808000035],[7.683902949000071,53.740802],[7.650748050000061,53.75934891600008]]],[[[6.866407720000041,53.64509797300008],[6.900804295000057,53.653861120000045],[6.905940261000069,53.644158857000036],[6.891386576000059,53.625455798000075],[6.876913402000071,53.62853689000008],[6.864948944000048,53.64018767200008],[6.866407720000041,53.64509797300008]]]]},"properties":{"NUTS_ID":"DE9","NUTS_NAME":"Niedersachsen"}},{"type":"Feature","geometry":{"type":"MultiPolygon","coordinates":[[[[8.703009,52.50043799900004],[8.70828093800003,52.42347778100003],[8.74489552600005,52.39407055600003],[8.941333815000064,52.40807601500006],[9.06959160100007,52.49729642300008],[9.111278681000044,52.477952756000036],[9.125252500000045,52.41199349900006],[8.993605554000055,52.31156697600005],[8.983410135000042,52.26816109300006],[9.050825734000057,52.22105591400003],[9.036766974000045,52.190880320000076],[8.993626246000076,52.190178840000044],[9.021180665000031,52.14388910000008],[9.128248452000037,52.13211275500004],[9.155604500000038,52.097829999000055],[9.196278736000068,51.97328562800004],[9.253759873000035,51.96963654800004],[9.308893,51.92271949900004],[9.335885198000028,51.88915423800006],[9.323343500000021,51.855060999000045],[9.433053933000053,51.837272737000035],[9.38417035200007,51.66342173600003],[9.417317500000024,51.64726949900006],[9.440457,51.65039399900007],[9.351767876000054,51.61231267800008],[9.299995749000061,51.51810683600007],[9.155410500000073,51.442674999000076],[9.099327402000029,51.45218314400006],[9.068970284000045,51.496101622000026],[8.970653500000026,51.506773499000076],[8.903134246000036,51.47931779100003],[8.940188908000039,51.42676979100003],[8.931288089000077,51.39627573900003],[8.69914607800007,51.37232499300006],[8.583252314000049,51.30214110000003],[8.567100415000027,51.27815010000006],[8.59025815900003,51.25749833800006],[8.71959744000003,51.26434582600007],[8.752788130000056,51.18888596700003],[8.672664501000042,51.102661983000075],[8.549085,51.101867999000035],[8.515336237000042,51.08023724100008],[8.527781197000024,51.01607048400007],[8.477892,50.969047499000055],[8.355496,50.86200099900003],[8.259245632000045,50.87109965700006],[8.15445455500003,50.80527576600008],[8.156990104000045,50.73036685300008],[8.125776500000029,50.68581399900006],[8.03969,50.69737549900003],[7.973362369000029,50.78337471800006],[7.965065911000067,50.83744186200005],[7.840882071000067,50.88589269000005],[7.851496,50.92583249900008],[7.785898,50.939913999000055],[7.753843821000032,50.859266768000055],[7.661003500000049,50.82036449900005],[7.659624314000041,50.77916967200008],[7.440772,50.711437999000054],[7.381564979000075,50.71115618200008],[7.335474886000043,50.643712046000076],[7.21239950000006,50.62340499900006],[7.210872,50.64954349900006],[7.195200500000055,50.64272299900006],[7.14963692300006,50.60827120500005],[6.927901,50.55861849900003],[6.882413920000033,50.46473330500004],[6.770488483000065,50.47279795700007],[6.800711500000034,50.361781499000074],[6.702168545000063,50.34774069400004],[6.582197204000067,50.375941907000026],[6.431252801000028,50.35849691000004],[6.425295,50.32301199900007],[6.405028500000071,50.32330849900006],[6.354699608000033,50.37910438400007],[6.367783069000041,50.44517195200007],[6.315556,50.49704249900003],[6.192200500000069,50.521055499000056],[6.189312500000028,50.56609399900003],[6.256062154000062,50.622096697000075],[6.183820236000031,50.63842684100007],[6.118585524000025,50.71241445000004],[6.020999,50.75429549900008],[6.010228014000063,50.80356607700003],[6.071928093000054,50.85841095300003],[6.086947500000065,50.91313499900008],[6.030686148000029,50.93437655200006],[6.00912829300006,50.98192359500007],[5.909806912000022,50.986444076000055],[5.877085,51.03210099900008],[5.900039583000023,51.058977766000055],[5.963342438000041,51.04807675400008],[6.174812,51.18451349900005],[6.089336081000056,51.17901841500003],[6.072657,51.24258749900008],[6.224405,51.36497899900007],[6.204204436000055,51.51871605200006],[6.105893465000065,51.600734715000044],[6.102653047000047,51.65622762000004],[5.953192,51.74784599900005],[5.979736423000077,51.77087679500005],[5.965693764000036,51.82929522100005],[6.061328113000059,51.85874812600008],[6.153173302000027,51.845999833000064],[6.167766,51.90080449900006],[6.407779500000061,51.82809199900004],[6.418819289000055,51.86125991200004],[6.769627628000023,51.921280187000036],[6.819483496000032,51.990481412000065],[6.695295429000055,52.05081673700005],[6.760465,52.118569499000046],[6.858584230000076,52.12669361500008],[6.991689886000074,52.222239122000076],[7.065685,52.24137299900008],[7.099149,52.24305849900003],[7.317481,52.280271999000036],[7.564925402000028,52.37971225600006],[7.608038500000021,52.47401599900007],[7.676563389000023,52.454330051000056],[7.745993802000044,52.39097806500007],[7.919990900000073,52.36957754000008],[7.964625500000068,52.32485849900007],[7.956465,52.27249049900007],[7.912068777000059,52.20440303100003],[7.995083701000055,52.167125912000074],[8.001942806000045,52.123956676000034],[7.885159,52.08330249900007],[7.96335963100006,52.04106353100008],[8.096448,52.05714499900006],[8.26541904800007,52.126670140000044],[8.410586500000022,52.11511499900007],[8.488547969000024,52.17629360600006],[8.451436125000043,52.22068260400005],[8.466186500000049,52.26761399900005],[8.437124178000033,52.358259634000035],[8.330635679000068,52.403230491000045],[8.297213500000055,52.45649799900008],[8.414692890000026,52.44738631000007],[8.49193370300003,52.505205551000074],[8.639945700000055,52.52496197800008],[8.703009,52.50043799900004]]]]},"properties":{"NUTS_ID":"DEA","NUTS_NAME":"Nordrhein-Westfalen"}},{"type":"Feature","geometry":{"type":"MultiPolygon","coordinates":[[[[8.125776500000029,50.68581399900006],[8.151592,50.59937099900003],[8.117370635000043,50.543007577000026],[8.041707432000067,50.54989516200004],[7.999356710000029,50.522786558000064],[7.971559500000069,50.40622049900003],[8.054538300000047,50.37230738400007],[8.121913500000062,50.277224999000055],[8.037826592000044,50.26056821000003],[8.02773054000005,50.22247396300003],[7.912357832000055,50.20041047500007],[7.894552516000033,50.18002365500007],[7.918086268000025,50.126718580000045],[7.773997,50.06653999900004],[7.786586620000037,50.047352903000046],[7.908147333000045,49.97491039000005],[8.175135500000067,50.03425549900004],[8.190038500000071,50.03529599900003],[8.24412893400006,50.02535261200006],[8.288245,49.995133999000075],[8.343030500000054,49.94050599900004],[8.400055,49.803674999000066],[8.457112368000026,49.756170385000075],[8.448365,49.73366149900005],[8.44637750000004,49.73079949900006],[8.36335667800006,49.68552113000004],[8.414774,49.59505199900008],[8.422439500000053,49.58338549900003],[8.422700500000076,49.57419249900005],[8.423068,49.54182099900004],[8.472505500000068,49.44351349900006],[8.501525083000047,49.43485594400005],[8.497316,49.411346999000045],[8.470915500000046,49.34071299900006],[8.487268,49.29002649900008],[8.466985500000021,49.28297549900003],[8.413072500000055,49.249816499000076],[8.33997,49.08014999900007],[8.277349,48.98993899900006],[8.261284,48.980916999000044],[8.232633,48.966571499000054],[8.068407500000035,48.99931649900003],[7.910654500000021,49.04516349900007],[7.635651,49.05395049900005],[7.529494993000071,49.09984529400003],[7.48078180300007,49.163457537000056],[7.36875550000002,49.16145799900005],[7.320341,49.18949899900008],[7.302362300000027,49.24137586200004],[7.394494,49.31635199900006],[7.402075500000024,49.367718499000034],[7.395898500000044,49.37204599900008],[7.292601500000046,49.40822249900003],[7.252589,49.43146549900007],[7.288370495000038,49.47054131600004],[7.27662250000003,49.54862349900003],[7.263919280000039,49.57425697900004],[7.02798,49.63943849900005],[6.891454,49.61342249900008],[6.592362449000063,49.528037812000036],[6.380052500000033,49.551104999000074],[6.432772165000074,49.66199954800004],[6.501011628000072,49.718714840000075],[6.51109198000006,49.782800645000066],[6.474962500000061,49.82127499900008],[6.326713396000059,49.844969192000065],[6.253362131000074,49.89093022700007],[6.127918174000058,50.047352903000046],[6.137662500000033,50.12995149900007],[6.193273631000068,50.24050441600008],[6.314800928000068,50.31306102000008],[6.405028500000071,50.32330849900006],[6.425295,50.32301199900007],[6.431252801000028,50.35849691000004],[6.582197204000067,50.375941907000026],[6.702168545000063,50.34774069400004],[6.800711500000034,50.361781499000074],[6.770488483000065,50.47279795700007],[6.882413920000033,50.46473330500004],[6.927901,50.55861849900003],[7.14963692300006,50.60827120500005],[7.195200500000055,50.64272299900006],[7.210872,50.64954349900006],[7.21239950000006,50.62340499900006],[7.335474886000043,50.643712046000076],[7.381564979000075,50.71115618200008],[7.440772,50.711437999000054],[7.659624314000041,50.77916967200008],[7.661003500000049,50.82036449900005],[7.753843821000032,50.859266768000055],[7.785898,50.939913999000055],[7.851496,50.92583249900008],[7.840882071000067,50.88589269000005],[7.965065911000067,50.83744186200005],[7.973362369000029,50.78337471800006],[8.03969,50.69737549900003],[8.125776500000029,50.68581399900006]]]]},"properties":{"NUTS_ID":"DEB","NUTS_NAME":"Rheinland-Pfalz"}},{"type":"Feature","geometry":{"type":"MultiPolygon","coordinates":[[[[7.27662250000003,49.54862349900003],[7.288370495000038,49.47054131600004],[7.252589,49.43146549900007],[7.292601500000046,49.40822249900003],[7.395898500000044,49.37204599900008],[7.402075500000024,49.367718499000034],[7.394494,49.31635199900006],[7.302362300000027,49.24137586200004],[7.320341,49.18949899900008],[7.36875550000002,49.16145799900005],[7.294891437000047,49.12113833900003],[7.192441505000033,49.11810178800005],[7.101069,49.15599799900008],[7.05166439900006,49.12596098900008],[7.023916084000064,49.18987047500008],[6.858713012000067,49.21081125200004],[6.81677806600004,49.15735418100007],[6.732842249000043,49.17312194200008],[6.723465500000032,49.21882899900004],[6.585592026000029,49.33145040900007],[6.556986,49.419208499000035],[6.449574877000032,49.46867312400008],[6.367107500000031,49.46950699900003],[6.380052500000033,49.551104999000074],[6.592362449000063,49.528037812000036],[6.891454,49.61342249900008],[7.02798,49.63943849900005],[7.263919280000039,49.57425697900004],[7.27662250000003,49.54862349900003]]]]},"properties":{"NUTS_ID":"DEC","NUTS_NAME":"Saarland"}},{"type":"Feature","geometry":{"type":"MultiPolygon","coordinates":[[[[12.83856150300005,51.67600297100006],[12.920212689000039,51.64419672000008],[13.051025,51.647676999000055],[13.140393567000046,51.603795095000066],[13.193018722000033,51.54223435200004],[13.21015,51.40473599900008],[13.264679942000043,51.39298180600008],[13.408160015000021,51.442765218000034],[13.547187971000028,51.37859095200008],[13.691250500000024,51.37401299900006],[13.835313,51.37678999900004],[14.00174557300005,51.38451839000004],[14.107943828000032,51.51415790800007],[14.163324500000044,51.54104299900007],[14.328355313000031,51.51953530700007],[14.447771,51.54206899900004],[14.563665859000025,51.573755722000044],[14.660032965000028,51.55265361900007],[14.729862,51.581776999000056],[14.740854826000032,51.53022157400005],[14.952272986000025,51.462442631000044],[14.974183,51.363949999000056],[15.033550726000044,51.269413480000026],[14.99568905600006,51.125160521000055],[14.89908923400003,50.94956260200007],[14.823362,50.870550499000046],[14.768558348000056,50.82354428200006],[14.6188,50.85780449900005],[14.638148370000067,50.922612927000046],[14.574420948000068,50.92401594000006],[14.589153727000053,50.98778946700003],[14.491221,51.04353049900004],[14.415094528000054,51.025071479000076],[14.317873500000076,51.05469899900004],[14.26953633900007,50.99314668800008],[14.388158291000025,50.92518877200007],[14.375912722000066,50.90015367400008],[13.982142313000054,50.81161361900007],[13.852984525000068,50.73152677100006],[13.652174,50.73035999900003],[13.54118319500003,50.70561009700003],[13.501846,50.633642999000074],[13.453121539000051,50.607942052000055],[13.387198142000045,50.63492668400005],[13.307229170000028,50.58187837200006],[13.252846959000067,50.58418411400004],[13.182554051000068,50.50653257300007],[13.043519243000048,50.50480540800004],[12.948144500000069,50.40431149900007],[12.821377839000036,50.45316315500003],[12.703094303000057,50.40609999600008],[12.58377850000005,50.40707899900008],[12.40941054800004,50.32169043300007],[12.33895767100006,50.24544718000004],[12.320222443000034,50.17594545800006],[12.17959249200004,50.31439110300005],[12.100900500000023,50.31802799900004],[12.021377830000063,50.33950257500004],[11.919323,50.42472799900003],[11.906935514000054,50.44741630400006],[11.946247493000044,50.49647244600004],[11.883192592000057,50.53682507500008],[11.944137500000068,50.59127549900006],[12.010456164000061,50.60491812200007],[12.055807920000063,50.55576404300007],[12.318916500000057,50.676532499000075],[12.238491943000042,50.74289009800003],[12.275198974000034,50.77964144800006],[12.250825500000076,50.81831849900004],[12.652865500000075,50.92367799900006],[12.617355,50.98079299900007],[12.551975231000029,51.00085434600004],[12.470887075000064,51.07719535700005],[12.283547,51.09192399900007],[12.207768746000056,51.13112896200005],[12.170904500000063,51.27550849900007],[12.15854799400006,51.31440556600006],[12.19354450000003,51.33251849900006],[12.157941683000047,51.45139458500006],[12.198939,51.53132049900006],[12.580263,51.62606549900005],[12.83856150300005,51.67600297100006]]]]},"properties":{"NUTS_ID":"DED","NUTS_NAME":"Sachsen"}},{"type":"Feature","geometry":{"type":"MultiPolygon","coordinates":[[[[12.12681150000003,52.89019949900006],[12.140092806000041,52.86344767300005],[12.219589073000066,52.86160517400003],[12.251293363000059,52.81168819800007],[12.249203500000021,52.79186199900005],[12.214361508000025,52.76551315800003],[12.234137452000027,52.64766402300006],[12.176032616000043,52.61372216900003],[12.171555,52.50633649900004],[12.25935680300006,52.50710737300005],[12.31718,52.45409549900006],[12.229165358000046,52.16813947400004],[12.276724500000057,52.104017999000064],[12.376122500000065,52.045119499000066],[12.553496203000066,51.985405058000026],[12.664075213000046,52.006870192000065],[12.769780500000024,51.97927449900004],[13.150913500000058,51.85961049900004],[13.164437501000066,51.706119209000065],[13.051025,51.647676999000055],[12.920212689000039,51.64419672000008],[12.83856150300005,51.67600297100006],[12.580263,51.62606549900005],[12.198939,51.53132049900006],[12.157941683000047,51.45139458500006],[12.19354450000003,51.33251849900006],[12.15854799400006,51.31440556600006],[12.170904500000063,51.27550849900007],[12.207768746000056,51.13112896200005],[12.283547,51.09192399900007],[12.28207476700004,51.01876714300005],[12.224169,50.942934999000045],[12.163529500000038,50.95859999900006],[12.021018500000025,50.969122499000036],[11.88621943000004,51.04995980900003],[11.775483730000076,51.048786825000036],[11.696938500000044,51.08749099900007],[11.484608500000036,51.10543749900006],[11.46564972300007,51.186265105000075],[11.381773815000031,51.215054775000056],[11.385374500000069,51.24588699900005],[11.473968,51.29505849900005],[11.405773,51.34220399900005],[11.383534286000042,51.38042535400007],[11.313299355000026,51.40464067800008],[10.978113,51.42688499900004],[10.896128572000066,51.57086647400007],[10.916059,51.616373999000075],[10.701372,51.642187499000045],[10.590321599000049,51.78535580800008],[10.584553737000022,51.83917189700003],[10.639105549000021,51.90067793600008],[10.561227,52.004065999000034],[10.674277239000048,52.04506141500008],[10.801489,52.04799699900008],[10.964414500000032,52.056642999000076],[10.964556193000021,52.101233087000026],[11.051072500000032,52.15579201400004],[11.02377238400004,52.19556722100003],[11.06720077500006,52.23402853700003],[11.012037131000056,52.33457203800003],[11.063589851000074,52.36830686400003],[10.934542500000077,52.47179499900005],[11.008781500000055,52.49674749900004],[10.952672217000043,52.55533309300006],[10.964225703000068,52.61781959800004],[10.910842958000046,52.62672250900005],[10.759314500000073,52.79583049900003],[10.841556,52.85220499900004],[10.93636052100004,52.85729091500008],[11.042801440000062,52.909174902000075],[11.29941267700002,52.87819577100004],[11.505027,52.94103249900007],[11.509808960000043,52.99303153400007],[11.597784500000046,53.03592649900003],[11.82420766000007,52.949805585000036],[11.869110169000066,52.902804106000076],[12.12681150000003,52.89019949900006]]]]},"properties":{"NUTS_ID":"DEE","NUTS_NAME":"Sachsen-Anhalt"}},{"type":"Feature","geometry":{"type":"MultiPolygon","coordinates":[[[[9.648736,49.79147749900005],[9.638112124000031,49.70176826900007],[9.81396742000004,49.708938001000035],[9.86067214700006,49.61470008100008],[9.839528624000025,49.56226966600008],[9.908252467000068,49.56428611500007],[9.922109163000073,49.50028585500007],[9.954927030000022,49.48228794800008],[10.018797009000025,49.49079846800004],[10.083723500000076,49.54356099900008],[10.11832750000002,49.47316949900005],[10.134157677000076,49.41223228000007],[10.111966500000051,49.38491049900006],[10.146120193000058,49.282656289000045],[10.135089644000061,49.21599993700005],[10.243651083000032,49.14465435300008],[10.230697945000031,49.09678666100007],[10.256763500000034,49.05949499900004],[10.410149793000073,48.97745602300006],[10.45376211000007,48.904378560000055],[10.423689,48.74449599900004],[10.487258,48.69666199900007],[10.362974869000027,48.66722265900006],[10.272348556000054,48.69197688300005],[10.310851244000048,48.54907171600007],[10.278248500000075,48.51610149900006],[10.23077950000004,48.510510999000076],[10.133895500000051,48.454871499000035],[10.032694500000048,48.45719649900008],[9.997606,48.35011799900008],[10.057845257000054,48.27957804400006],[10.095357500000034,48.164014999000074],[10.136457,48.10845949900005],[10.114954500000067,47.97625749900004],[10.104207,47.97435849900006],[10.091911914000036,47.955270631000076],[10.110136500000067,47.93714999900004],[10.106502385000056,47.85503059900003],[10.131928500000072,47.82008749900007],[10.091852326000037,47.78568234100004],[10.129958717000022,47.68972990800006],[10.077292500000055,47.63927449900007],[10.037184127000046,47.67869276500005],[9.954927030000022,47.65387438100004],[9.850834986000052,47.67162304300007],[9.692151500000023,47.610423499000035],[9.55872050000005,47.54189299900003],[9.495604,47.55145499900004],[9.379430429000024,47.623924904000035],[9.182192,47.655890499000066],[9.035864552000021,47.68394551700004],[8.874888,47.65466999900008],[8.81438670500006,47.72000781300005],[8.781523916000026,47.71253475000003],[8.795708500000046,47.67559549900005],[8.670461,47.684862499000076],[8.663354,47.68589249900003],[8.706728502000033,47.71025266000004],[8.705336294000062,47.73717933900008],[8.61383150000006,47.801078999000026],[8.510115,47.77619049900005],[8.418418645000031,47.700261682000075],[8.424768915000072,47.67725556600004],[8.502823516000035,47.648959999000056],[8.606369500000028,47.669005499000036],[8.595602,47.605544499000075],[8.562841,47.599432499000045],[8.518547900000044,47.62564432700003],[8.426434500000028,47.56754899900005],[8.220461271000033,47.61682198600005],[8.038635465000027,47.55345335800007],[7.922758989000044,47.554939655000055],[7.894107500000075,47.58637499900004],[7.713784500000031,47.539404999000055],[7.634097,47.561113499000044],[7.589039,47.589877999000066],[7.520500789000039,47.67819504500005],[7.545990500000073,47.743573999000034],[7.538238329000023,47.79281692500007],[7.614385821000042,47.97575498600003],[7.574078593000024,48.040327209000054],[7.577291,48.11565499900007],[7.577919500000064,48.12139199900008],[7.680713,48.25726699900008],[7.736128405000045,48.33579692700005],[7.812587650000069,48.59900219600007],[7.943675805000055,48.70581388800008],[7.95963050000006,48.71858099900004],[8.089638395000065,48.80897066000006],[8.16888773200003,48.92662643600005],[8.232633,48.966571499000054],[8.261284,48.980916999000044],[8.277349,48.98993899900006],[8.33997,49.08014999900007],[8.413072500000055,49.249816499000076],[8.466985500000021,49.28297549900003],[8.487268,49.29002649900008],[8.470915500000046,49.34071299900006],[8.497316,49.411346999000045],[8.501525083000047,49.43485594400005],[8.472505500000068,49.44351349900006],[8.423068,49.54182099900004],[8.422700500000076,49.57419249900005],[8.422439500000053,49.58338549900003],[8.581375,49.519780499000035],[8.61203177300007,49.54906121000005],[8.604488863000029,49.60678864700003],[8.65498827600004,49.61774981900004],[8.724004620000073,49.530446409000035],[8.899572500000033,49.50365549900005],[8.899355,49.48454999900008],[8.838630523000063,49.47066228400007],[8.81903621300006,49.40437659100007],[8.883384831000058,49.415483539000036],[8.93188,49.47063699900008],[9.083275965000041,49.52582767100006],[9.122348744000021,49.51848679900007],[9.103006,49.57745599900005],[9.224101761000043,49.58014695300005],[9.295933650000052,49.64494241400007],[9.41092,49.663507999000046],[9.40409323800003,49.714589611000065],[9.350118726000062,49.71553901100003],[9.324981882000031,49.76061734600006],[9.471497500000055,49.77972649900005],[9.648736,49.79147749900005]]]]},"properties":{"NUTS_ID":"DE1","NUTS_NAME":"Baden-W\u00fcrttemberg"}},{"type":"Feature","geometry":{"type":"MultiPolygon","coordinates":[[[[10.399765213000023,50.40381535700004],[10.450532,50.40185949900007],[10.590759513000023,50.32912350400005],[10.610115,50.22799499900003],[10.729202,50.23000549900007],[10.81267372000002,50.26465817400003],[10.736480286000074,50.32020255200007],[10.740279226000041,50.35929160400008],[10.945718500000055,50.38646649900005],[11.03728886600004,50.35151625100008],[11.12070022000006,50.35825632900003],[11.189943,50.27118549900007],[11.250487706000058,50.29010942800005],[11.276817694000044,50.371244181000066],[11.265938,50.47942099900007],[11.401218568000047,50.51757775100003],[11.43090539700006,50.44100975300006],[11.481568,50.43162149900007],[11.525337742000033,50.383952985000064],[11.603290500000071,50.398765999000034],[11.837007242000027,50.39739530000003],[11.919323,50.42472799900003],[12.021377830000063,50.33950257500004],[12.100900500000023,50.31802799900004],[12.127284337000049,50.28508982200003],[12.111386003000064,50.24552018800006],[12.160679,50.21984899900008],[12.204444849000026,50.17132149400004],[12.206517645000076,50.11357644100008],[12.261259113000051,50.082997187000046],[12.260799,50.05815649900006],[12.481502899000077,49.97545557600006],[12.492033474000038,49.93630236700005],[12.550988500000074,49.905087999000045],[12.463464774000045,49.78847472700005],[12.401524,49.75837299900007],[12.515856142000075,49.679976717000045],[12.593778500000042,49.54219149900007],[12.635993462000044,49.51865064900005],[12.633763500000043,49.47619499900003],[12.79174308000006,49.34985610800004],[12.93186984700003,49.344036448000054],[13.010761711000043,49.30647047000008],[13.170908,49.17357949900003],[13.198941331000071,49.13117373800003],[13.376297463000071,49.06481734700003],[13.416651500000057,48.98003549900005],[13.49318499900005,48.950579004000076],[13.551578500000062,48.96778749900005],[13.672850911000069,48.88760352500003],[13.735961652000071,48.876795679000054],[13.839507,48.77160499900003],[13.796107,48.71360049900005],[13.819366133000074,48.61292970400007],[13.727090500000031,48.51301949900005],[13.513369500000067,48.590977999000074],[13.438430500000038,48.54889499900003],[13.449865162000037,48.50525539700004],[13.401616937000028,48.37149167700005],[13.277131010000062,48.30240485000007],[13.177043,48.29438999900003],[13.036918184000058,48.261268922000056],[12.94468450000005,48.20669249900004],[12.875715150000076,48.19708748100004],[12.751555,48.112810499000034],[12.860181500000067,47.99663999900008],[12.875785500000063,47.962608999000054],[12.938876511000046,47.93603868100007],[12.995371313000021,47.85541587200004],[12.918040579000035,47.72201375800006],[13.02804354400007,47.71398746600005],[13.083783832000051,47.668719116000034],[13.046055500000023,47.52050249900003],[13.008441669000035,47.471676278000075],[12.919026380000048,47.49477077000006],[12.803834829000039,47.55905307900008],[12.790165263000063,47.63066701900004],[12.695795500000031,47.68222299900003],[12.613971503000073,47.671108135000054],[12.575026500000035,47.63231599900007],[12.504721152000059,47.62962385000003],[12.429038882000043,47.68912106000005],[12.338045500000021,47.69708749900008],[12.264070949000029,47.68488995200005],[12.253354183000056,47.72412163700005],[12.22835974000003,47.72096348700006],[12.172223451000036,47.69503094500004],[12.194596872000034,47.616794637000055],[12.060662,47.61874349900006],[11.82888702400004,47.585556918000066],[11.632883,47.59244599900006],[11.558567294000056,47.515105249000044],[11.410219,47.49532399900005],[11.39561879300004,47.472007216000065],[11.42142750000005,47.444851999000036],[11.332829426000046,47.44425330200005],[11.265056787000049,47.404177462000064],[11.208388901000035,47.430533197000045],[11.016500500000063,47.39636799900006],[10.991202500000043,47.396130999000036],[10.957793586000037,47.44935665300005],[10.884271286000057,47.48404445700004],[10.886199,47.53684799900003],[10.787376051000024,47.51977665100003],[10.63704354500004,47.56468061400005],[10.553153964000046,47.53719631100006],[10.454439,47.55579699900005],[10.440313057000026,47.50839383300007],[10.468308555000021,47.43700688800004],[10.383247837000056,47.35460460300004],[10.310081057000048,47.30181527700006],[10.178353,47.270113999000046],[10.217505922000043,47.35460460300004],[10.197507220000034,47.38429651800004],[10.102068745000054,47.366598141000054],[10.084013782000056,47.44765461800006],[9.999526,47.48301699900003],[9.967813500000034,47.54624049900008],[9.859610462000035,47.53945446600005],[9.79363040100003,47.58276907800007],[9.696501485000056,47.531358950000026],[9.55872050000005,47.54189299900003],[9.692151500000023,47.610423499000035],[9.850834986000052,47.67162304300007],[9.954927030000022,47.65387438100004],[10.037184127000046,47.67869276500005],[10.077292500000055,47.63927449900007],[10.129958717000022,47.68972990800006],[10.091852326000037,47.78568234100004],[10.131928500000072,47.82008749900007],[10.106502385000056,47.85503059900003],[10.110136500000067,47.93714999900004],[10.091911914000036,47.955270631000076],[10.104207,47.97435849900006],[10.114954500000067,47.97625749900004],[10.136457,48.10845949900005],[10.095357500000034,48.164014999000074],[10.057845257000054,48.27957804400006],[9.997606,48.35011799900008],[10.032694500000048,48.45719649900008],[10.133895500000051,48.454871499000035],[10.23077950000004,48.510510999000076],[10.278248500000075,48.51610149900006],[10.310851244000048,48.54907171600007],[10.272348556000054,48.69197688300005],[10.362974869000027,48.66722265900006],[10.487258,48.69666199900007],[10.423689,48.74449599900004],[10.45376211000007,48.904378560000055],[10.410149793000073,48.97745602300006],[10.256763500000034,49.05949499900004],[10.230697945000031,49.09678666100007],[10.243651083000032,49.14465435300008],[10.135089644000061,49.21599993700005],[10.146120193000058,49.282656289000045],[10.111966500000051,49.38491049900006],[10.134157677000076,49.41223228000007],[10.11832750000002,49.47316949900005],[10.083723500000076,49.54356099900008],[10.018797009000025,49.49079846800004],[9.954927030000022,49.48228794800008],[9.922109163000073,49.50028585500007],[9.908252467000068,49.56428611500007],[9.839528624000025,49.56226966600008],[9.86067214700006,49.61470008100008],[9.81396742000004,49.708938001000035],[9.638112124000031,49.70176826900007],[9.648736,49.79147749900005],[9.471497500000055,49.77972649900005],[9.324981882000031,49.76061734600006],[9.350118726000062,49.71553901100003],[9.40409323800003,49.714589611000065],[9.41092,49.663507999000046],[9.295933650000052,49.64494241400007],[9.224101761000043,49.58014695300005],[9.103006,49.57745599900005],[9.077172590000032,49.62027497100007],[9.140732697000033,49.73840782500008],[9.119612026000027,49.78828987700007],[9.036080500000025,49.84650399900005],[9.05008,49.86631499900005],[9.016088500000023,49.991340499000046],[9.028974518000041,50.02939931700007],[8.978167627000062,50.047352903000046],[8.99056,50.06711899900006],[9.032662878000053,50.111472339000045],[9.157239301000061,50.115243200000066],[9.224514552000073,50.14567715000004],[9.359426502000076,50.12902503000004],[9.404984500000069,50.08773449900008],[9.508541179000076,50.106364090000056],[9.509808887000077,50.23381258200004],[9.623151,50.229039999000065],[9.732759781000027,50.30439349400007],[9.73291450000005,50.356149499000026],[9.774456601000054,50.42126650400007],[9.867531561000021,50.402220354000065],[9.935655,50.419606499000054],[9.954927030000022,50.42368731400006],[10.041338500000052,50.51646949900004],[10.10472657300005,50.55549164700005],[10.203337041000054,50.548085842000035],[10.328591071000062,50.488586972000064],[10.399765213000023,50.40381535700004]]]]},"properties":{"NUTS_ID":"DE2","NUTS_NAME":"Bayern"}},{"type":"Feature","geometry":{"type":"MultiPolygon","coordinates":[[[[13.39854,52.648194499000056],[13.501531931000045,52.65057114400008],[13.51236724000006,52.596297467000056],[13.610827500000028,52.54423549900008],[13.66698,52.47416699900003],[13.735420765000072,52.43866164000008],[13.699738,52.377882999000065],[13.656703715000049,52.350536764000026],[13.44791497600005,52.414335305000066],[13.420985,52.376246999000045],[13.311926,52.399185499000055],[13.22879622000005,52.41585770000006],[13.165898,52.39427549900006],[13.110138664000033,52.43252451400008],[13.153695500000026,52.50182149900007],[13.127467921000061,52.52702897900008],[13.164263,52.59890049900008],[13.287742412000057,52.65364969600006],[13.334076048000043,52.62894584600008],[13.39854,52.648194499000056]]]]},"properties":{"NUTS_ID":"DE3","NUTS_NAME":"Berlin"}},{"type":"Feature","geometry":{"type":"MultiPolygon","coordinates":[[[[14.14539178800004,53.26946256800005],[14.223499658000037,53.26102642200004],[14.37163699100006,53.312396300000046],[14.412157,53.32963599900006],[14.418506806000039,53.312396300000046],[14.438382951000051,53.25843264300005],[14.376077577000046,53.190255698000044],[14.355216493000057,53.06748495900007],[14.143658,52.96136849900006],[14.156692,52.895590999000035],[14.139304283000058,52.833387525000035],[14.223017718000051,52.81168819800007],[14.436438,52.67990049900004],[14.565063,52.62449699900003],[14.625156056000037,52.576242111000056],[14.621086037000055,52.48797582700007],[14.534362,52.39500799900003],[14.600891500000046,52.27205199900004],[14.703394281000044,52.24074779100005],[14.685395305000043,52.12390300900006],[14.755227,52.070024999000054],[14.716716,52.00118799900008],[14.701060485000028,51.91786496700007],[14.599978490000069,51.82596090900006],[14.752037666000035,51.66325875800004],[14.759195016000035,51.61396481200006],[14.729862,51.581776999000056],[14.660032965000028,51.55265361900007],[14.563665859000025,51.573755722000044],[14.447771,51.54206899900004],[14.328355313000031,51.51953530700007],[14.163324500000044,51.54104299900007],[14.107943828000032,51.51415790800007],[14.00174557300005,51.38451839000004],[13.835313,51.37678999900004],[13.691250500000024,51.37401299900006],[13.547187971000028,51.37859095200008],[13.408160015000021,51.442765218000034],[13.264679942000043,51.39298180600008],[13.21015,51.40473599900008],[13.193018722000033,51.54223435200004],[13.140393567000046,51.603795095000066],[13.051025,51.647676999000055],[13.164437501000066,51.706119209000065],[13.150913500000058,51.85961049900004],[12.769780500000024,51.97927449900004],[12.664075213000046,52.006870192000065],[12.553496203000066,51.985405058000026],[12.376122500000065,52.045119499000066],[12.276724500000057,52.104017999000064],[12.229165358000046,52.16813947400004],[12.31718,52.45409549900006],[12.25935680300006,52.50710737300005],[12.171555,52.50633649900004],[12.176032616000043,52.61372216900003],[12.234137452000027,52.64766402300006],[12.214361508000025,52.76551315800003],[12.249203500000021,52.79186199900005],[12.251293363000059,52.81168819800007],[12.219589073000066,52.86160517400003],[12.140092806000041,52.86344767300005],[12.12681150000003,52.89019949900006],[11.869110169000066,52.902804106000076],[11.82420766000007,52.949805585000036],[11.597784500000046,53.03592649900003],[11.451633637000043,53.07273081000005],[11.336179549000065,53.06188851300004],[11.265732,53.12197799900008],[11.51056317800004,53.13092007500006],[11.608997504000058,53.22751669000007],[11.822202118000064,53.23346600100007],[12.015128511000057,53.312396300000046],[12.05912810600006,53.35494817600005],[12.325101500000073,53.32130149900007],[12.331751500000053,53.31801099900008],[12.457871124000064,53.256804344000045],[12.654484954000054,53.24305919400007],[12.984683,53.16498549900007],[13.138951122000037,53.24522379700005],[13.241403500000047,53.23240099900005],[13.292525225000077,53.269378621000044],[13.401030401000071,53.26031878600003],[13.500176660000022,53.312396300000046],[13.561386662000075,53.395898817000045],[13.710065500000042,53.479062499000065],[13.795141793000028,53.48336029700005],[13.799323980000054,53.53973552900004],[13.930814061000035,53.42751324400007],[14.233521804000077,53.416560779000065],[14.22238223200003,53.365150312000026],[14.166649919000065,53.312396300000046],[14.14539178800004,53.26946256800005]],[[13.127467921000061,52.52702897900008],[13.153695500000026,52.50182149900007],[13.110138664000033,52.43252451400008],[13.165898,52.39427549900006],[13.22879622000005,52.41585770000006],[13.311926,52.399185499000055],[13.420985,52.376246999000045],[13.44791497600005,52.414335305000066],[13.656703715000049,52.350536764000026],[13.699738,52.377882999000065],[13.735420765000072,52.43866164000008],[13.66698,52.47416699900003],[13.610827500000028,52.54423549900008],[13.51236724000006,52.596297467000056],[13.501531931000045,52.65057114400008],[13.39854,52.648194499000056],[13.334076048000043,52.62894584600008],[13.287742412000057,52.65364969600006],[13.164263,52.59890049900008],[13.127467921000061,52.52702897900008]]]]},"properties":{"NUTS_ID":"DE4","NUTS_NAME":"Brandenburg"}},{"type":"Feature","geometry":{"type":"MultiPolygon","coordinates":[[[[8.968682525000077,53.04485062200007],[8.915827,53.01102149900004],[8.711424,53.04462999900005],[8.654898500000058,53.10886449900005],[8.61555829100007,53.16320990400004],[8.485330500000032,53.22711999900008],[8.984185500000024,53.126070999000035],[8.959601614000064,53.11169854500008],[8.968682525000077,53.04485062200007]]],[[[8.609332478000056,53.490187167000045],[8.492652,53.47241999900007],[8.554898,53.525130999000055],[8.497349138000061,53.58904994000005],[8.520410500000025,53.606204999000056],[8.636657340000056,53.598122241000056],[8.645464894000042,53.52133135200006],[8.609332478000056,53.490187167000045]]]]},"properties":{"NUTS_ID":"DE5","NUTS_NAME":"Bremen"}},{"type":"Feature","geometry":{"type":"MultiPolygon","coordinates":[[[[10.189639014000022,53.61027118000004],[10.166027469000028,53.55111127100008],[10.236678500000039,53.49635449900006],[10.307954,53.433200999000064],[10.204495592000058,53.39674753700007],[10.05909336700006,53.45534484900003],[9.984188030000041,53.42269248800005],[9.862595937000037,53.43964498200006],[9.768861,53.50527899900004],[9.766256584000075,53.54681530400006],[9.730104,53.55758099900004],[9.76283021200004,53.60761317300006],[9.862595937000037,53.60745666000008],[9.945376,53.65292799900004],[10.07143,53.69702349900007],[10.152262387000064,53.71179875200005],[10.189639014000022,53.61027118000004]]],[[[8.52964915800004,53.91953562200007],[8.50237951500003,53.89361165400004],[8.463698084000043,53.90045618400006],[8.501928210000074,53.95466056300006],[8.52964915800004,53.91953562200007]]]]},"properties":{"NUTS_ID":"DE6","NUTS_NAME":"Hamburg"}},{"type":"Feature","geometry":{"type":"MultiPolygon","coordinates":[[[[9.61493024500004,51.63074579800008],[9.685331,51.582016499000076],[9.672377500000039,51.568403999000054],[9.643031317000066,51.58189079700003],[9.62971903600004,51.58213236300003],[9.628560382000046,51.56819739000008],[9.647755500000073,51.55251099900005],[9.60735736600003,51.51295036300007],[9.63243152800004,51.42096990700003],[9.557291,51.35137849900008],[9.568025,51.34000149900004],[9.732304500000055,51.295231999000066],[9.765356589000021,51.32096162300007],[9.724384319000023,51.36169095100007],[9.799747439000043,51.40065621900004],[9.898159615000054,51.41320318100003],[9.928339,51.37529899900005],[9.954927030000022,51.30431559800007],[10.206942,51.190648999000075],[10.210013,51.144082999000034],[10.14655569200005,51.136195271000076],[10.155821761000027,51.05962602800008],[10.202181,51.012008999000045],[10.182348500000046,50.99848749900008],[10.021558500000026,50.992949499000076],[9.989913940000065,50.923295805000066],[10.017097257000046,50.876031675000036],[9.926176500000054,50.767389999000045],[9.899958616000049,50.64992062400006],[9.943680357000062,50.63634305000005],[10.016909672000054,50.66832490000007],[10.077555500000074,50.63762399900003],[10.046112779000055,50.608971747000055],[10.041338500000052,50.51646949900004],[9.954927030000022,50.42368731400006],[9.935655,50.419606499000054],[9.867531561000021,50.402220354000065],[9.774456601000054,50.42126650400007],[9.73291450000005,50.356149499000026],[9.732759781000027,50.30439349400007],[9.623151,50.229039999000065],[9.509808887000077,50.23381258200004],[9.508541179000076,50.106364090000056],[9.404984500000069,50.08773449900008],[9.359426502000076,50.12902503000004],[9.224514552000073,50.14567715000004],[9.157239301000061,50.115243200000066],[9.032662878000053,50.111472339000045],[8.99056,50.06711899900006],[8.978167627000062,50.047352903000046],[9.028974518000041,50.02939931700007],[9.016088500000023,49.991340499000046],[9.05008,49.86631499900005],[9.036080500000025,49.84650399900005],[9.119612026000027,49.78828987700007],[9.140732697000033,49.73840782500008],[9.077172590000032,49.62027497100007],[9.103006,49.57745599900005],[9.122348744000021,49.51848679900007],[9.083275965000041,49.52582767100006],[8.93188,49.47063699900008],[8.883384831000058,49.415483539000036],[8.81903621300006,49.40437659100007],[8.838630523000063,49.47066228400007],[8.899355,49.48454999900008],[8.899572500000033,49.50365549900005],[8.724004620000073,49.530446409000035],[8.65498827600004,49.61774981900004],[8.604488863000029,49.60678864700003],[8.61203177300007,49.54906121000005],[8.581375,49.519780499000035],[8.422439500000053,49.58338549900003],[8.414774,49.59505199900008],[8.36335667800006,49.68552113000004],[8.44637750000004,49.73079949900006],[8.448365,49.73366149900005],[8.457112368000026,49.756170385000075],[8.400055,49.803674999000066],[8.343030500000054,49.94050599900004],[8.288245,49.995133999000075],[8.24412893400006,50.02535261200006],[8.190038500000071,50.03529599900003],[8.175135500000067,50.03425549900004],[7.908147333000045,49.97491039000005],[7.786586620000037,50.047352903000046],[7.773997,50.06653999900004],[7.918086268000025,50.126718580000045],[7.894552516000033,50.18002365500007],[7.912357832000055,50.20041047500007],[8.02773054000005,50.22247396300003],[8.037826592000044,50.26056821000003],[8.121913500000062,50.277224999000055],[8.054538300000047,50.37230738400007],[7.971559500000069,50.40622049900003],[7.999356710000029,50.522786558000064],[8.041707432000067,50.54989516200004],[8.117370635000043,50.543007577000026],[8.151592,50.59937099900003],[8.125776500000029,50.68581399900006],[8.156990104000045,50.73036685300008],[8.15445455500003,50.80527576600008],[8.259245632000045,50.87109965700006],[8.355496,50.86200099900003],[8.477892,50.969047499000055],[8.527781197000024,51.01607048400007],[8.515336237000042,51.08023724100008],[8.549085,51.101867999000035],[8.672664501000042,51.102661983000075],[8.752788130000056,51.18888596700003],[8.71959744000003,51.26434582600007],[8.59025815900003,51.25749833800006],[8.567100415000027,51.27815010000006],[8.583252314000049,51.30214110000003],[8.69914607800007,51.37232499300006],[8.931288089000077,51.39627573900003],[8.940188908000039,51.42676979100003],[8.903134246000036,51.47931779100003],[8.970653500000026,51.506773499000076],[9.068970284000045,51.496101622000026],[9.099327402000029,51.45218314400006],[9.155410500000073,51.442674999000076],[9.299995749000061,51.51810683600007],[9.351767876000054,51.61231267800008],[9.440457,51.65039399900007],[9.61493024500004,51.63074579800008]]]]},"properties":{"NUTS_ID":"DE7","NUTS_NAME":"Hessen"}},{"type":"Feature","geometry":{"type":"MultiPolygon","coordinates":[[[[6.756369234000033,46.81924363300004],[6.864612744000055,46.73496133700007],[6.91990955700004,46.85385991900006],[6.866233500000021,46.90929349900006],[6.896209500000055,46.92532599900005],[6.98782968200004,46.842998891000036],[6.923765510000067,46.72760233300005],[6.80449683300003,46.63935372200007],[6.810456212000076,46.59413174500003],[6.871642116000032,46.56131842600007],[6.830333946000053,46.51153588300008],[6.938933069000029,46.50228807500008],[6.998243682000066,46.44518944300006],[7.237020500000028,46.553799999000034],[7.203708357000039,46.42870514500004],[7.221457,46.32921249900005],[7.284540427000024,46.36080162500008],[7.518061063000061,46.37692421600008],[7.631740573000059,46.43728601000004],[7.719696390000024,46.42121595400005],[7.93123379900004,46.49677120600006],[8.019221164000044,46.557056783000064],[8.25942509500004,46.53181371100004],[8.345830850000027,46.57027154900004],[8.410411500000066,46.653020499000036],[8.418509288000052,46.565859414000045],[8.477673500000037,46.52760249900007],[8.399525140000037,46.48872204300005],[8.384717,46.45215849900006],[8.306579227000043,46.41642343800004],[8.274542113000052,46.35597608000006],[8.097953092000068,46.27001223700006],[8.155154227000025,46.19504853900003],[8.146736757000042,46.14787910300004],[8.037422677000052,46.093418633000056],[7.99578593800004,46.00620629900004],[7.904377458000056,45.98572253800006],[7.87713750000006,45.92695499900003],[7.864076500000067,45.916750499000045],[7.562174020000043,45.97837381000005],[7.396656083000039,45.90429898600007],[7.295241688000033,45.914938525000025],[7.186894255000027,45.86715529600008],[7.110989511000071,45.86990842700004],[7.044886,45.92241299900007],[6.95032556600006,46.04662609300004],[6.884692114000075,46.05451903100004],[6.889226998000026,46.11851959900008],[6.800789207000037,46.15554146900007],[6.85388978800006,46.27449908400007],[6.781493599000044,46.348922867000056],[6.821064,46.42715449900004],[6.521952522000049,46.45384076200003],[6.31752278600004,46.393948558000034],[6.219547,46.311877999000046],[6.291190701000062,46.25098570700004],[6.281626955000036,46.224007001000075],[6.144432960000074,46.14734074900008],[5.956067,46.13209549900006],[5.982189351000045,46.206702273000076],[6.111630022000043,46.25402421700005],[6.125608,46.31722999900006],[6.15624695300005,46.370938797000065],[6.064003,46.416228999000055],[6.138106,46.55766699900005],[6.138954722000051,46.594303772000046],[6.435801032000029,46.76705320100007],[6.460011,46.85155149900004],[6.707045119000043,46.92867480000007],[6.780046,46.85264299900007],[6.756369234000033,46.81924363300004]],[[6.730514179000068,46.72907849300003],[6.758057594000036,46.70335501500006],[6.797284483000055,46.73590936000005],[6.776069754000048,46.76562656600004],[6.730514179000068,46.72907849300003]]],[[[7.076671886000042,46.90984855700003],[7.045787098000062,46.865731993000054],[6.927902,46.953174499000056],[7.002286500000025,46.98672349900005],[7.039971500000036,46.979880999000045],[7.051847,46.97711499900004],[7.076671886000042,46.90984855700003]]]]},"properties":{"NUTS_ID":"CH01","NUTS_NAME":"R\u00e9gion l\u00e9manique"}},{"type":"Feature","geometry":{"type":"MultiPolygon","coordinates":[[[[7.326466,47.43985349900004],[7.375684500000034,47.41407699900003],[7.43689,47.37997049900008],[7.577615588000072,47.42015253100004],[7.649071184000036,47.484206948000065],[7.690199310000025,47.45737621100005],[7.655698106000045,47.382313414000066],[7.773306422000076,47.34522157600003],[7.925143784000056,47.40937104900007],[7.956853,47.45520049900006],[8.016300570000055,47.39492460500003],[8.011640137000029,47.35460460300004],[7.965527850000058,47.324481105000075],[7.898393026000065,47.329463995000026],[7.824728,47.265637499000036],[7.838686,47.234413999000026],[7.882217861000072,47.15793440500005],[7.876558743000032,47.04937856600003],[7.949471942000059,46.99265658500008],[7.880913101000033,46.91831279200005],[7.871986936000042,46.85421011100004],[7.981403158000035,46.78168690000007],[8.049088,46.78800799900006],[8.280497092000076,46.75842452300003],[8.368889500000023,46.78797549900003],[8.395225,46.77153799900003],[8.448959500000058,46.76451699900008],[8.410411500000066,46.653020499000036],[8.345830850000027,46.57027154900004],[8.25942509500004,46.53181371100004],[8.019221164000044,46.557056783000064],[7.93123379900004,46.49677120600006],[7.719696390000024,46.42121595400005],[7.631740573000059,46.43728601000004],[7.518061063000061,46.37692421600008],[7.284540427000024,46.36080162500008],[7.221457,46.32921249900005],[7.203708357000039,46.42870514500004],[7.237020500000028,46.553799999000034],[6.998243682000066,46.44518944300006],[6.938933069000029,46.50228807500008],[6.830333946000053,46.51153588300008],[6.871642116000032,46.56131842600007],[6.810456212000076,46.59413174500003],[6.80449683300003,46.63935372200007],[6.923765510000067,46.72760233300005],[6.98782968200004,46.842998891000036],[6.896209500000055,46.92532599900005],[6.866233500000021,46.90929349900006],[6.91990955700004,46.85385991900006],[6.864612744000055,46.73496133700007],[6.756369234000033,46.81924363300004],[6.780046,46.85264299900007],[6.707045119000043,46.92867480000007],[6.460011,46.85155149900004],[6.458717246000049,46.94664566200004],[6.637377385000036,47.00693244800004],[6.858914,47.16529449900003],[7.016158894000057,47.33374679100007],[6.915109424000036,47.36797737200004],[6.939186,47.433704499000044],[7.023916084000064,47.50414154200007],[7.130353,47.503040499000065],[7.190700043000049,47.442752950000056],[7.326466,47.43985349900004]],[[6.927902,46.953174499000056],[7.045787098000062,46.865731993000054],[7.076671886000042,46.90984855700003],[7.051847,46.97711499900004],[7.039971500000036,46.979880999000045],[7.002286500000025,46.98672349900005],[6.927902,46.953174499000056]]],[[[7.375684500000034,47.41407699900003],[7.380894,47.43189249900007],[7.421139500000038,47.44638799900008],[7.424013500000058,47.44417849900003],[7.427169,47.44381949900003],[7.437788500000067,47.446248499000035],[7.438866767000036,47.446268789000044],[7.441629612000042,47.44695563700003],[7.444036800000049,47.44847292500003],[7.445847244000049,47.450668148000034],[7.446878552000044,47.45332015100007],[7.447026826000069,47.456161758000064],[7.446275959000047,47.45891194300003],[7.445019,47.46172349900007],[7.510905500000035,47.50258249900003],[7.520941783000069,47.46233697000008],[7.43146573000007,47.41424583600008],[7.375684500000034,47.41407699900003]]],[[[6.730514179000068,46.72907849300003],[6.776069754000048,46.76562656600004],[6.797284483000055,46.73590936000005],[6.758057594000036,46.70335501500006],[6.730514179000068,46.72907849300003]]]]},"properties":{"NUTS_ID":"CH02","NUTS_NAME":"Espace Mittelland"}},{"type":"Feature","geometry":{"type":"MultiPolygon","coordinates":[[[[7.375684500000034,47.41407699900003],[7.43146573000007,47.41424583600008],[7.520941783000069,47.46233697000008],[7.510905500000035,47.50258249900003],[7.555159500000059,47.56456399900003],[7.589039,47.589877999000066],[7.634097,47.561113499000044],[7.713784500000031,47.539404999000055],[7.894107500000075,47.58637499900004],[7.922758989000044,47.554939655000055],[8.038635465000027,47.55345335800007],[8.220461271000033,47.61682198600005],[8.426434500000028,47.56754899900005],[8.364752509000027,47.491445241000065],[8.408943013000055,47.35460460300004],[8.410716,47.24803749900008],[8.412129500000049,47.14073749900007],[8.35514150900002,47.15872115700006],[8.266940198000043,47.28088689100008],[8.190780962000076,47.22792128800006],[7.977025370000035,47.276036196000064],[7.936578369000074,47.24292466300005],[7.838686,47.234413999000026],[7.824728,47.265637499000036],[7.898393026000065,47.329463995000026],[7.965527850000058,47.324481105000075],[8.011640137000029,47.35460460300004],[8.016300570000055,47.39492460500003],[7.956853,47.45520049900006],[7.925143784000056,47.40937104900007],[7.773306422000076,47.34522157600003],[7.655698106000045,47.382313414000066],[7.690199310000025,47.45737621100005],[7.649071184000036,47.484206948000065],[7.577615588000072,47.42015253100004],[7.43689,47.37997049900008],[7.375684500000034,47.41407699900003]]],[[[7.375684500000034,47.41407699900003],[7.326466,47.43985349900004],[7.337402779000058,47.440884004000054],[7.352753930000063,47.43441327000005],[7.380894,47.43189249900007],[7.375684500000034,47.41407699900003]]],[[[7.437788500000067,47.446248499000035],[7.427169,47.44381949900003],[7.424013500000058,47.44417849900003],[7.421139500000038,47.44638799900008],[7.445019,47.46172349900007],[7.446275959000047,47.45891194300003],[7.447026826000069,47.456161758000064],[7.446878552000044,47.45332015100007],[7.445847244000049,47.450668148000034],[7.444036800000049,47.44847292500003],[7.441629612000042,47.44695563700003],[7.438866767000036,47.446268789000044],[7.437788500000067,47.446248499000035]]]]},"properties":{"NUTS_ID":"CH03","NUTS_NAME":"Nordwestschweiz"}},{"type":"Feature","geometry":{"type":"MultiPolygon","coordinates":[[[[8.670461,47.684862499000076],[8.772692643000028,47.640647899000044],[8.75868024700003,47.59752538300006],[8.873076876000027,47.52559372700006],[8.943635500000028,47.375837499000056],[8.961254635000046,47.35460460300004],[8.973794429000066,47.31788281300004],[8.92653063900002,47.26530566200006],[8.820134586000052,47.24591683800003],[8.807784500000025,47.220559999000045],[8.715198241000053,47.20188402600007],[8.692483500000037,47.163624999000035],[8.577121010000042,47.21522734100006],[8.449012004000053,47.217458916000055],[8.410716,47.24803749900008],[8.408943013000055,47.35460460300004],[8.364752509000027,47.491445241000065],[8.426434500000028,47.56754899900005],[8.518547900000044,47.62564432700003],[8.562841,47.599432499000045],[8.538418156000034,47.58264098700005],[8.554103897000061,47.557166419000055],[8.595602,47.605544499000075],[8.606369500000028,47.669005499000036],[8.663354,47.68589249900003],[8.670461,47.684862499000076]]]]},"properties":{"NUTS_ID":"CH04","NUTS_NAME":"Z\u00fcrich"}},{"type":"Feature","geometry":{"type":"MultiPolygon","coordinates":[[[[8.81438670500006,47.72000781300005],[8.874888,47.65466999900008],[9.035864552000021,47.68394551700004],[9.182192,47.655890499000066],[9.379430429000024,47.623924904000035],[9.495604,47.55145499900004],[9.55872050000005,47.54189299900003],[9.578308225000058,47.48207230700007],[9.65131672800004,47.42941799300007],[9.653397257000051,47.37580710800006],[9.609419933000027,47.35460460300004],[9.530749,47.27058099900006],[9.492738495000026,47.18427748200003],[9.511416523000037,47.104615342000045],[9.47604750000005,47.05179749900003],[9.607078,47.06077449900005],[9.870955051000067,47.01374995300006],[9.881130023000026,46.94157813400005],[9.954927030000022,46.91490261600006],[10.087917879000031,46.84911510300003],[10.144974500000046,46.85100949900004],[10.21877941400004,46.86755630300007],[10.245612227000038,46.921560990000046],[10.376316751000047,46.99474114700007],[10.478487272000052,46.93559312100007],[10.469651500000055,46.85490899900003],[10.390021410000031,46.67876694600005],[10.478751577000025,46.612444140000036],[10.452801,46.53068299900008],[10.306025284000043,46.551516554000045],[10.23170088300003,46.628251876000036],[10.106377838000071,46.60161923900006],[10.055722397000068,46.52885713000006],[10.045830135000074,46.46002423400006],[10.156059194000022,46.408687790000045],[10.114377088000026,46.34661723700003],[10.166604937000045,46.26721653000004],[10.141731957000047,46.23474811500006],[10.054682546000038,46.23615896500007],[9.954927030000022,46.37855156300003],[9.617288045000066,46.292108918000054],[9.53831708100006,46.315031582000074],[9.467741406000073,46.38015066200006],[9.456001204000074,46.49558423900004],[9.411743124000054,46.47643862000007],[9.30228343500005,46.49681525700004],[9.259291546000043,46.44642546000006],[9.292069154000046,46.32998383300003],[9.24853150000007,46.233767999000065],[9.159377500000062,46.16960099900007],[9.095791423000037,46.212236990000065],[9.063322810000045,46.28433613300007],[9.097934058000021,46.42067349600006],[9.026694881000026,46.51692903600008],[9.026719952000064,46.59577722800003],[8.933771532000037,46.61836109400008],[8.841051179000033,46.56812553700007],[8.678729,46.57918949900005],[8.661707567000065,46.63739251000004],[8.684606279000036,46.69089547900006],[8.81407327200003,46.74645786100007],[8.877168500000039,46.81312349900003],[8.946082249000028,46.878675230000056],[8.935079,46.92020799900007],[8.96169130900006,46.956047512000055],[8.904208922000066,47.02536125000006],[9.00456550000007,47.17314549900004],[8.941113593000068,47.21317012700007],[8.807784500000025,47.220559999000045],[8.820134586000052,47.24591683800003],[8.92653063900002,47.26530566200006],[8.973794429000066,47.31788281300004],[8.961254635000046,47.35460460300004],[8.943635500000028,47.375837499000056],[8.873076876000027,47.52559372700006],[8.75868024700003,47.59752538300006],[8.772692643000028,47.640647899000044],[8.670461,47.684862499000076],[8.795708500000046,47.67559549900005],[8.781523916000026,47.71253475000003],[8.81438670500006,47.72000781300005]]],[[[8.606369500000028,47.669005499000036],[8.502823516000035,47.648959999000056],[8.424768915000072,47.67725556600004],[8.418418645000031,47.700261682000075],[8.510115,47.77619049900005],[8.61383150000006,47.801078999000026],[8.705336294000062,47.73717933900008],[8.706728502000033,47.71025266000004],[8.663354,47.68589249900003],[8.606369500000028,47.669005499000036]]],[[[8.595602,47.605544499000075],[8.554103897000061,47.557166419000055],[8.538418156000034,47.58264098700005],[8.562841,47.599432499000045],[8.595602,47.605544499000075]]]]},"properties":{"NUTS_ID":"CH05","NUTS_NAME":"Ostschweiz"}},{"type":"Feature","geometry":{"type":"MultiPolygon","coordinates":[[[[8.266940198000043,47.28088689100008],[8.35514150900002,47.15872115700006],[8.412129500000049,47.14073749900007],[8.410716,47.24803749900008],[8.449012004000053,47.217458916000055],[8.577121010000042,47.21522734100006],[8.692483500000037,47.163624999000035],[8.715198241000053,47.20188402600007],[8.807784500000025,47.220559999000045],[8.941113593000068,47.21317012700007],[9.00456550000007,47.17314549900004],[8.904208922000066,47.02536125000006],[8.96169130900006,46.956047512000055],[8.935079,46.92020799900007],[8.946082249000028,46.878675230000056],[8.877168500000039,46.81312349900003],[8.81407327200003,46.74645786100007],[8.684606279000036,46.69089547900006],[8.661707567000065,46.63739251000004],[8.678729,46.57918949900005],[8.54206475500007,46.58028975600007],[8.477673500000037,46.52760249900007],[8.418509288000052,46.565859414000045],[8.410411500000066,46.653020499000036],[8.448959500000058,46.76451699900008],[8.395225,46.77153799900003],[8.368889500000023,46.78797549900003],[8.280497092000076,46.75842452300003],[8.049088,46.78800799900006],[7.981403158000035,46.78168690000007],[7.871986936000042,46.85421011100004],[7.880913101000033,46.91831279200005],[7.949471942000059,46.99265658500008],[7.876558743000032,47.04937856600003],[7.882217861000072,47.15793440500005],[7.838686,47.234413999000026],[7.936578369000074,47.24292466300005],[7.977025370000035,47.276036196000064],[8.190780962000076,47.22792128800006],[8.266940198000043,47.28088689100008]]]]},"properties":{"NUTS_ID":"CH06","NUTS_NAME":"Zentralschweiz"}},{"type":"Feature","geometry":{"type":"MultiPolygon","coordinates":[[[[9.159377500000062,46.16960099900007],[9.016719549000072,46.036634750000076],[9.00906671000007,45.95242641100003],[9.07546566600007,45.89600154100003],[9.040230397000073,45.84071295500007],[8.912147,45.830444999000065],[8.934673653000061,45.87199093500004],[8.887485052000045,45.95362864800006],[8.795137938000039,45.997646891000045],[8.839013237000074,46.07237804600004],[8.745396436000021,46.11218725100008],[8.713936,46.09727199900004],[8.618370298000059,46.12417623500005],[8.465066076000028,46.24313963600008],[8.436606420000032,46.29590822500006],[8.46204259600006,46.435119643000064],[8.384717,46.45215849900006],[8.399525140000037,46.48872204300005],[8.477673500000037,46.52760249900007],[8.54206475500007,46.58028975600007],[8.678729,46.57918949900005],[8.841051179000033,46.56812553700007],[8.933771532000037,46.61836109400008],[9.026719952000064,46.59577722800003],[9.026694881000026,46.51692903600008],[9.097934058000021,46.42067349600006],[9.063322810000045,46.28433613300007],[9.095791423000037,46.212236990000065],[9.159377500000062,46.16960099900007]]]]},"properties":{"NUTS_ID":"CH07","NUTS_NAME":"Ticino"}}]}